[{"OBJECT_NAME":"ONEWEB-0358","OBJECT_ID":"2021-090F","EPOCH":"2026-03-09T15:15:49.415904","MEAN_MOTION":13.20771163,"ECCENTRICITY":0.0001562,"INCLINATION":87.9169,"RA_OF_ASC_NODE":294.3141,"ARG_OF_PERICENTER":82.8531,"MEAN_ANOMALY":277.278,"EPHEMERIS_TYPE":0,"CLASSIFICATION_TYPE":"U","NORAD_CAT_ID":49284,"ELEMENT_SET_NO":999,"REV_AT_EPOCH":21741,"BSTAR":-0.00047341,"MEAN_MOTION_DOT":-1.79e-6,"MEAN_MOTION_DDOT":0},{"OBJECT_NAME":"COSMOS 457","OBJECT_ID":"1971-099A","EPOCH":"2026-03-09T17:22:41.928096","MEAN_MOTION":13.16113343,"ECCENTRICITY":0.00223107,"INCLINATION":74.0365,"RA_OF_ASC_NODE":159.0991,"ARG_OF_PERICENTER":81.8482,"MEAN_ANOMALY":32.906,"EPHEMERIS_TYPE":0,"CLASSIFICATION_TYPE":"U","NORAD_CAT_ID":5614,"ELEMENT_SET_NO":999,"REV_AT_EPOCH":60847,"BSTAR":0.00099329993,"MEAN_MOTION_DOT":3.59e-6,"MEAN_MOTION_DDOT":0}]
